1 27704U 03010A   18042.49597451 -.00000036  00000-0  00000+0 0  9992
2 27704  54.0098  88.2930 0246136 268.6344 205.4021  2.00552727108972
1 27704U 03010A   18042.77728841 -.00000033  00000-0  00000+0 0  9999
2 27704  54.0100  88.2813 0246154 268.6415  48.5078  2.00552748108987
1 27704U 03010A   18042.77728841 -.00000033  00000-0  00000-0 0  9990
2 27704  54.0100  88.2813 0246154 268.6415  48.5078  2.00552748108987
1 27704U 03010A   18044.49878771 -.00000017  00000-0  00000+0 0  9990
2 27704  54.0111  88.2099 0246192 268.6809 211.4171  2.00552864109013
1 27704U 03010A   18045.52070734 -.00000010  00000-0  00000+0 0  9991
2 27704  54.0118  88.1676 0246226 268.7069 229.2330  2.00552920109036
1 27704U 03010A   18046.29056513 -.00000006  00000-0  00000+0 0  9990
2 27704  54.0124  88.1357 0246256 268.7258  65.0634  2.00552959109059
1 27704U 03010A   18047.47450649 -.00000003  00000-0  00000+0 0  9996
2 27704  54.0132  88.0866 0246284 268.7539 199.8599  2.00553017109079
1 27704U 03010A   18049.02112017 -.00000002  00000-0  00000+0 0  9992
2 27704  54.0143  88.0225 0246330 268.7927 236.5013  2.00553083109100
1 27704U 03010A   18050.97117862 -.00000006  00000-0  00000-0 0  9996
2 27704  54.0157  87.9416 0246374 268.8377 204.4310  2.00553172109151
1 27704U 03010A   18051.46003693 -.00000007  00000-0  00000+0 0  9997
2 27704  54.0160  87.9213 0246382 268.8480 197.3847  2.00553195109154
1 27704U 03010A   18052.29842052 -.00000008  00000-0  00000+0 0  9990
2 27704  54.0166  87.8866 0246404 268.8669  82.6930  2.00553235109173
1 27704U 03010A   18053.48128199 -.00000009  00000-0  00000+0 0  9992
2 27704  54.0175  87.8375 0246427 268.8950 216.7114  2.00553297109190
1 27704U 03010A   18054.25928185 -.00000008  00000-0  00000+0 0  9990
2 27704  54.0181  87.8052 0246455 268.9159  58.4198  2.00553337109213
1 27704U 03010A   18055.44820594 -.00000006  00000-0  00000+0 0  9995
2 27704  54.0190  87.7559 0246482 268.9435 196.8166  2.00553411109238
1 27704U 03010A   18056.51891501 -.00000002  00000-0  00000+0 0  9996
2 27704  54.0198  87.7115 0246509 268.9692 249.8622  2.00553483109256
1 27704U 03010A   18057.29168685  .00000000  00000-0  00000+0 0  9999
2 27704  54.0204  87.6794 0246537 268.9880  87.7986  2.00553538109271
1 27704U 03010A   18058.78066813  .00000001  00000-0  00000-0 0  9996
2 27704  54.0215  87.6176 0246571 269.0226  82.8362  2.00553654109308
1 27704U 03010A   18059.25714611  .00000000  00000-0  00000+0 0  9993
2 27704  54.0218  87.5978 0246581 269.0333  66.8514  2.00553694109316
1 27704U 03010A   18060.92096895 -.00000009  00000-0  00000+0 0  9996
2 27704  54.0230  87.5288 0246611 269.0717 188.1250  2.00553840109345
1 27704U 03010A   18062.46626769 -.00000021  00000-0  00000+0 0  9990
2 27704  54.0241  87.4647 0246637 269.1030 223.8296  2.00553990109378
1 27704U 03010A   18063.47711499 -.00000029  00000-0  00000+0 0  9995
2 27704  54.0249  87.4228 0246658 269.1258 233.6588  2.00554089109391
1 27704U 03010A   18065.26590434 -.00000037  00000-0  00000+0 0  9997
2 27704  54.0262  87.3486 0246710 269.1676  85.1591  2.00554265109439
1 27704U 03010A   18066.03684288 -.00000037  00000-0  00000+0 0  9994
2 27704  54.0268  87.3166 0246725 269.1917 281.7684  2.00554338109443
1 27704U 03010A   18068.47310005 -.00000022  00000-0  00000+0 0  9991
2 27704  54.0286  87.2156 0246775 269.2453 240.7437  2.00554562109497
1 27704U 03010A   18069.43253375 -.00000013  00000-0  00000+0 0  9994
2 27704  54.0293  87.1759 0246788 269.2644 213.4566  2.00554646109515
1 27704U 03010A   18070.43981854 -.00000003  00000-0  00000+0 0  9995
2 27704  54.0300  87.1342 0246798 269.2877 220.7147  2.00554722109534
1 27704U 03010A   18071.44882793  .00000006  00000-0  00000+0 0  9991
2 27704  54.0308  87.0924 0246810 269.3099 229.2196  2.00554792109556
1 27704U 03010A   18072.76034817  .00000014  00000-0  00000-0 0  9993
2 27704  54.0318  87.0380 0246824 269.3361  96.1403  2.00554871109594
1 27704U 03010A   18073.47185840  .00000018  00000-0  00000+0 0  9998
2 27704  54.0323  87.0086 0246831 269.3536 249.8492  2.00554908109591
1 27704U 03010A   18074.90340925  .00000021  00000-0  00000-0 0  9999
2 27704  54.0333  86.9493 0246852 269.3887 203.4265  2.00554976109638
1 27704U 03010A   18075.26108119  .00000021  00000-0  00000+0 0  9995
2 27704  54.0336  86.9345 0246860 269.3962 101.6664  2.00554992109630
1 27704U 03010A   18075.96705559  .00000021  00000-0  00000+0 0  9993
2 27704  54.0341  86.9053 0246866 269.4128 251.3796  2.00555023109649
1 27704U 03010A   18075.96705559  .00000021  00000-0  00000-0 0  9994
2 27704  54.0341  86.9053 0246866 269.4128 251.3796  2.00555023109650
1 27704U 03010A   18076.98500691  .00000020  00000-0  00000+0 0  9995
2 27704  54.0348  86.8631 0246879 269.4379 266.3391  2.00555068109667
1 27704U 03010A   18077.94010365  .00000018  00000-0  00000+0 0  9993
2 27704  54.0355  86.8236 0246887 269.4605 235.9188  2.00555111109684
1 27704U 03010A   18079.42660569  .00000014  00000-0  00000+0 0  9991
2 27704  54.0367  86.7620 0246895 269.4979 229.1712  2.00555177109710
1 27704U 03010A   18080.43519972  .00000013  00000-0  00000+0 0  9994
2 27704  54.0374  86.7203 0246909 269.5195 237.3787  2.00555224109730
1 27704U 03010A   18082.45669979  .00000015  00000-0  00000+0 0  9993
2 27704  54.0389  86.6366 0246929 269.5601 256.9108  2.00555343109779
1 27704U 03010A   18083.32960716  .00000017  00000-0  00000+0 0  9995
2 27704  54.0396  86.6004 0246945 269.5761 167.1556  2.00555402109799
1 27704U 03010A   18083.94513993  .00000018  00000-0  00000-0 0  9996
2 27704  54.0400  86.5750 0246947 269.5907 251.5710  2.00555443109814
1 27704U 03010A   18084.34389802  .00000019  00000-0  00000+0 0  9991
2 27704  54.0403  86.5584 0246957 269.5979 179.4772  2.00555472109810
1 27704U 03010A   18084.89975132  .00000020  00000-0  00000-0 0  9991
2 27704  54.0408  86.5354 0246959 269.6085 220.8067  2.00555513109837
1 27704U 03010A   18085.37271606  .00000020  00000-0  00000-0 0  9990
2 27704  54.0412  86.5158 0246966 269.6181 202.2896  2.00555550109834
1 27704U 03010A   18085.72517275  .00000020  00000-0  00000-0 0  9994
2 27704  54.0414  86.5012 0246966 269.6289  96.7614  2.00555576109858
1 27704U 03010A   18086.34432229  .00000018  00000-0  00000+0 0  9994
2 27704  54.0419  86.4756 0246970 269.6427 183.7894  2.00555626109859
1 27704U 03010A   18087.45487358  .00000013  00000-0  00000+0 0  9995
2 27704  54.0427  86.4296 0246965 269.6736 265.6049  2.00555713109875
1 27704U 03010A   18088.47979373  .00000005  00000-0  00000-0 0  9993
2 27704  54.0434  86.3872 0246970 269.6947 285.6030  2.00555808109903
1 27704U 03010A   18089.38385632 -.00000003  00000-0  00000+0 0  9991
2 27704  54.0441  86.3497 0246976 269.7157 218.3391  2.00555893109912
1 27704U 03010A   18090.27187854 -.00000011  00000-0  00000+0 0  9996
2 27704  54.0447  86.3129 0246985 269.7335 139.4969  2.00555979109939
1 27704U 03010A   18091.26537097 -.00000019  00000-0  00000+0 0  9992
2 27704  54.0454  86.2718 0246990 269.7552 136.8035  2.00556078109955
1 27704U 03010A   18092.44944553 -.00000025  00000-0  00000+0 0  9999
2 27704  54.0463  86.2228 0246988 269.7789 271.7137  2.00556198109977
1 27704U 03010A   18092.86557286 -.00000026  00000-0  00000-0 0  9990
2 27704  54.0466  86.2056 0247003 269.7837 212.1644  2.00556241109995
1 27704U 03010A   18093.30213875 -.00000026  00000-0  00000+0 0  9992
2 27704  54.0469  86.1875 0247012 269.7920 167.3688  2.00556285109996
1 27704U 03010A   18093.88200274 -.00000025  00000-0  00000-0 0  9994
2 27704  54.0473  86.1635 0247016 269.8021 226.0366  2.00556343110018
1 27704U 03010A   18094.44900669 -.00000022  00000-0  00000+0 0  9998
2 27704  54.0478  86.1401 0247011 269.8160 275.4152  2.00556397110013
1 27704U 03010A   18094.85487892 -.00000020  00000-0  00000-0 0  9990
2 27704  54.0481  86.1233 0247011 269.8261 208.4562  2.00556433110036
1 27704U 03010A   18095.28236726 -.00000017  00000-0  00000+0 0  9991
2 27704  54.0484  86.1056 0247017 269.8351 157.1059  2.00556473110033
1 27704U 03010A   18095.90995354 -.00000013  00000-0  00000-0 0  9996
2 27704  54.0488  86.0797 0247012 269.8471 250.2288  2.00556529110059
1 27704U 03010A   18096.25842139 -.00000010  00000-0  00000+0 0  9993
2 27704  54.0491  86.0652 0247019 269.8548 141.8248  2.00556558110058
1 27704U 03010A   18097.37106402 -.00000000  00000-0  00000+0 0  9992
2 27704  54.0499  86.0192 0247014 269.8766 225.1628  2.00556648110072
1 27704U 03010A   18098.40415309  .00000008  00000-0  00000+0 0  9993
2 27704  54.0506  85.9765 0247003 269.8990 251.0604  2.00556720110097
1 27704U 03010A   18099.46298583  .00000015  00000-0  00000+0 0  9991
2 27704  54.0513  85.9327 0247003 269.9194 295.5480  2.00556788110118
1 27704U 03010A   18100.46044898  .00000019  00000-0  00000+0 0  9996
2 27704  54.0521  85.8915 0246992 269.9430 295.7221  2.00556843110137
1 27704U 03010A   18101.24785319  .00000022  00000-0  00000+0 0  9997
2 27704  54.0526  85.8589 0246999 269.9598 144.2345  2.00556884110153
1 27704U 03010A   18101.83539510  .00000022  00000-0  00000-0 0  9993
2 27704  54.0530  85.8346 0247005 269.9697 208.4474  2.00556915110171
1 27704U 03010A   18102.32691769  .00000022  00000-0  00000+0 0  9992
2 27704  54.0534  85.8142 0247001 269.9813 203.3298  2.00556937110177
1 27704U 03010A   18102.86771872  .00000022  00000-0  00000+0 0  9995
2 27704  54.0538  85.7919 0247011 269.9898 233.7959  2.00556964110188
1 27704U 03010A   18102.86771872  .00000022  00000-0  00000-0 0  9996
2 27704  54.0538  85.7919 0247011 269.9898 233.7959  2.00556964110199
1 27704U 03010A   18104.23904382  .00000019  00000-0  00000+0 0  9998
2 27704  54.0547  85.7351 0247005 270.0214 143.9024  2.00557023110212
1 27704U 03010A   18104.93889819  .00000017  00000-0  00000-0 0  9991
2 27704  54.0553  85.7062 0246994 270.0376 289.2024  2.00557054110233
